{"type": "FeatureCollection", "features": [ {"type": "Feature", "properties": {"norad_id": 67020, "name": "STARLINK-36172", "group": "last-30-days", "lat": 48.45408910204396, "lon": -38.240721904724815, "alt_km": 300.79985809175105, "timestamp": "2025-12-21T18:54:57.226101+00:00", "meta": {"OBJECT_NAME": "STARLINK-36172", "OBJECT_ID": "2025-293T", "EPOCH": "2025-12-21T14:00:01.999872", "MEAN_MOTION": 15.90177581, "ECCENTRICITY": 0.00042839, "INCLINATION": 69.9923, "RA_OF_ASC_NODE": 298.0716, "ARG_OF_PERICENTER": 262.4984, "MEAN_ANOMALY": 58.4744, "EPHEMERIS_TYPE": 0, "CLASSIFICATION_TYPE": "U", "NORAD_CAT_ID": 67020, "ELEMENT_SET_NO": 999, "REV_AT_EPOCH": 164, "BSTAR": -0.0045376089, "MEAN_MOTION_DOT": -0.01368881, "MEAN_MOTION_DDOT": 0.00053003105}, "tle": {"line1": "1 67020U 25293T   25355.58335648 -.01368881  53003-3 -45376-2 0  9996", "line2": "2 67020  69.9923 298.0716 0004283 262.4984  58.4744 15.90177581  1647"}}, "geometry": {"type": "Point", "coordinates": [-38.240721904724815, 48.45408910204396]}}, {"type": "Feature", "properties": {"norad_id": 67021, "name": "STARLINK-36184", "group": "last-30-days", "lat": 50.788380140439415, "lon": -35.999209162637925, "alt_km": 300.49477360588116, "timestamp": "2025-12-21T18:54:57.226110+00:00", "meta": {"OBJECT_NAME": "STARLINK-36184", "OBJECT_ID": "2025-293U", "EPOCH": "2025-12-21T14:00:01.999872", "MEAN_MOTION": 15.90217966, "ECCENTRICITY": 0.00045345, "INCLINATION": 69.9926, "RA_OF_ASC_NODE": 298.0682, "ARG_OF_PERICENTER": 268.7936, "MEAN_ANOMALY": 54.9035, "EPHEMERIS_TYPE": 0, "CLASSIFICATION_TYPE": "U", "NORAD_CAT_ID": 67021, "ELEMENT_SET_NO": 999, "REV_AT_EPOCH": 164, "BSTAR": -0.0048149045, "MEAN_MOTION_DOT": -0.0145471, "MEAN_MOTION_DDOT": 0.00059322085}, "tle": {"line1": "1 67021U 25293U   25355.58335648 -.01454710  59322-3 -48149-2 0  9995", "line2": "2 67021  69.9926 298.0682 0004534 268.7936  54.9035 15.90217966  1644"}}, "geometry": {"type": "Point", "coordinates": [-35.999209162637925, 50.788380140439415]}}, {"type": "Feature", "properties": {"norad_id": 67022, "name": "STARLINK-36209", "group": "last-30-days", "lat": 53.440467261101055, "lon": -33.09702564920771, "alt_km": 300.2853087506264, "timestamp": "2025-12-21T18:54:57.226122+00:00", "meta": {"OBJECT_NAME": "STARLINK-36209", "OBJECT_ID": "2025-293V", "EPOCH": "2025-12-21T14:00:01.999872", "MEAN_MOTION": 15.90248935, "ECCENTRICITY": 0.00043358, "INCLINATION": 69.9922, "RA_OF_ASC_NODE": 298.0645, "ARG_OF_PERICENTER": 261.866, "MEAN_ANOMALY": 65.0243, "EPHEMERIS_TYPE": 0, "CLASSIFICATION_TYPE": "U", "NORAD_CAT_ID": 67022, "ELEMENT_SET_NO": 999, "REV_AT_EPOCH": 164, "BSTAR": -0.0051720649, "MEAN_MOTION_DOT": -0.0156368, "MEAN_MOTION_DDOT": 0.00067810446}, "tle": {"line1": "1 67022U 25293V   25355.58335648 -.01563680  67810-3 -51721-2 0  9994", "line2": "2 67022  69.9922 298.0645 0004335 261.8660  65.0243 15.90248935  1641"}}, "geometry": {"type": "Point", "coordinates": [-33.09702564920771, 53.440467261101055]}}, {"type": "Feature", "properties": {"norad_id": 67023, "name": "STARLINK-36191", "group": "last-30-days", "lat": 55.5761013235324, "lon": -30.411231085136922, "alt_km": 300.0321657753566, "timestamp": "2025-12-21T18:54:57.226132+00:00", "meta": {"OBJECT_NAME": "STARLINK-36191", "OBJECT_ID": "2025-293W", "EPOCH": "2025-12-21T14:00:01.999872", "MEAN_MOTION": 15.90282389, "ECCENTRICITY": 0.000431, "INCLINATION": 69.9922, "RA_OF_ASC_NODE": 298.0608, "ARG_OF_PERICENTER": 262.3193, "MEAN_ANOMALY": 67.2026, "EPHEMERIS_TYPE": 0, "CLASSIFICATION_TYPE": "U", "NORAD_CAT_ID": 67023, "ELEMENT_SET_NO": 999, "REV_AT_EPOCH": 153, "BSTAR": -0.0054703788, "MEAN_MOTION_DOT": -0.01655549, "MEAN_MOTION_DDOT": 0.00075389336}, "tle": {"line1": "1 67023U 25293W   25355.58335648 -.01655549  75389-3 -54704-2 0  9995", "line2": "2 67023  69.9922 298.0608 0004310 262.3193  67.2026 15.90282389  1533"}}, "geometry": {"type": "Point", "coordinates": [-30.411231085136922, 55.5761013235324]}}, {"type": "Feature", "properties": {"norad_id": 67024, "name": "STARLINK-36192", "group": "last-30-days", "lat": 57.90217266791778, "lon": -27.018838445653113, "alt_km": 299.77575773043645, "timestamp": "2025-12-21T18:54:57.226144+00:00", "meta": {"OBJECT_NAME": "STARLINK-36192", "OBJECT_ID": "2025-293X", "EPOCH": "2025-12-21T14:00:01.999872", "MEAN_MOTION": 15.90313058, "ECCENTRICITY": 0.00042776, "INCLINATION": 69.9924, "RA_OF_ASC_NODE": 298.0577, "ARG_OF_PERICENTER": 262.9237, "MEAN_ANOMALY": 69.5662, "EPHEMERIS_TYPE": 0, "CLASSIFICATION_TYPE": "U", "NORAD_CAT_ID": 67024, "ELEMENT_SET_NO": 999, "REV_AT_EPOCH": 164, "BSTAR": -0.0057924609, "MEAN_MOTION_DOT": -0.01754495, "MEAN_MOTION_DDOT": 0.00083981989}, "tle": {"line1": "1 67024U 25293X   25355.58335648 -.01754495  83982-3 -57925-2 0  9992", "line2": "2 67024  69.9924 298.0577 0004277 262.9237  69.5662 15.90313058  1649"}}, "geometry": {"type": "Point", "coordinates": [-27.018838445653113, 57.90217266791778]}}, {"type": "Feature", "properties": {"norad_id": 67025, "name": "STARLINK-36178", "group": "last-30-days", "lat": 59.72361247133313, "lon": -23.916807591611658, "alt_km": 299.6613384212287, "timestamp": "2025-12-21T18:54:57.226153+00:00", "meta": {"OBJECT_NAME": "STARLINK-36178", "OBJECT_ID": "2025-293Y", "EPOCH": "2025-12-21T14:00:01.999872", "MEAN_MOTION": 15.90346944, "ECCENTRICITY": 0.00043793, "INCLINATION": 69.9923, "RA_OF_ASC_NODE": 298.0547, "ARG_OF_PERICENTER": 261.4759, "MEAN_ANOMALY": 73.4279, "EPHEMERIS_TYPE": 0, "CLASSIFICATION_TYPE": "U", "NORAD_CAT_ID": 67025, "ELEMENT_SET_NO": 999, "REV_AT_EPOCH": 164, "BSTAR": -0.0060317026, "MEAN_MOTION_DOT": -0.01829233, "MEAN_MOTION_DDOT": 0.00090784866}, "tle": {"line1": "1 67025U 25293Y   25355.58335648 -.01829233  90785-3 -60317-2 0  9994", "line2": "2 67025  69.9923 298.0547 0004379 261.4759  73.4279 15.90346944  1640"}}, "geometry": {"type": "Point", "coordinates": [-23.916807591611658, 59.72361247133313]}}, {"type": "Feature", "properties": {"norad_id": 67026, "name": "STARLINK-36176", "group": "last-30-days", "lat": 63.443309377692586, "lon": -15.736947299872547, "alt_km": 299.41800927229815, "timestamp": "2025-12-21T18:54:57.226163+00:00", "meta": {"OBJECT_NAME": "STARLINK-36176", "OBJECT_ID": "2025-293Z", "EPOCH": "2025-12-21T14:00:01.999872", "MEAN_MOTION": 15.90473097, "ECCENTRICITY": 0.00045839, "INCLINATION": 69.992, "RA_OF_ASC_NODE": 298.0483, "ARG_OF_PERICENTER": 259.44, "MEAN_ANOMALY": 80.7922, "EPHEMERIS_TYPE": 0, "CLASSIFICATION_TYPE": "U", "NORAD_CAT_ID": 67026, "ELEMENT_SET_NO": 999, "REV_AT_EPOCH": 165, "BSTAR": -0.0070161226, "MEAN_MOTION_DOT": -0.02137556, "MEAN_MOTION_DDOT": 0.0012172132}, "tle": {"line1": "1 67026U 25293Z   25355.58335648 -.02137556  12172-2 -70161-2 0  9997", "line2": "2 67026  69.9920 298.0483 0004583 259.4400  80.7922 15.90473097  1651"}}, "geometry": {"type": "Point", "coordinates": [-15.736947299872547, 63.443309377692586]}}, {"type": "Feature", "properties": {"norad_id": 67027, "name": "STARLINK-36171", "group": "last-30-days", "lat": 61.9094792757347, "lon": -19.484584931092655, "alt_km": 299.52629193903795, "timestamp": "2025-12-21T18:54:57.226174+00:00", "meta": {"OBJECT_NAME": "STARLINK-36171", "OBJECT_ID": "2025-293AA", "EPOCH": "2025-12-21T14:00:01.999872", "MEAN_MOTION": 15.90399092, "ECCENTRICITY": 0.00044727, "INCLINATION": 69.992, "RA_OF_ASC_NODE": 298.0512, "ARG_OF_PERICENTER": 260.2508, "MEAN_ANOMALY": 77.7083, "EPHEMERIS_TYPE": 0, "CLASSIFICATION_TYPE": "U", "NORAD_CAT_ID": 67027, "ELEMENT_SET_NO": 999, "REV_AT_EPOCH": 164, "BSTAR": -0.0065044424, "MEAN_MOTION_DOT": -0.01976014, "MEAN_MOTION_DDOT": 0.0010491306}, "tle": {"line1": "1 67027U 25293AA  25355.58335648 -.01976014  10491-2 -65044-2 0  9993", "line2": "2 67027  69.9920 298.0512 0004472 260.2508  77.7083 15.90399092  1646"}}, "geometry": {"type": "Point", "coordinates": [-19.484584931092655, 61.9094792757347]}}, {"type": "Feature", "properties": {"norad_id": 67028, "name": "STARLINK-36132", "group": "last-30-days", "lat": 66.54574700577538, "lon": -5.424326692737616, "alt_km": 299.1999650233629, "timestamp": "2025-12-21T18:54:57.226186+00:00", "meta": {"OBJECT_NAME": "STARLINK-36132", "OBJECT_ID": "2025-293AB", "EPOCH": "2025-12-21T14:00:01.999872", "MEAN_MOTION": 15.90276571, "ECCENTRICITY": 0.00044369, "INCLINATION": 69.9924, "RA_OF_ASC_NODE": 298.0419, "ARG_OF_PERICENTER": 268.9199, "MEAN_ANOMALY": 76.7383, "EPHEMERIS_TYPE": 0, "CLASSIFICATION_TYPE": "U", "NORAD_CAT_ID": 67028, "ELEMENT_SET_NO": 999, "REV_AT_EPOCH": 165, "BSTAR": -0.0060214216, "MEAN_MOTION_DOT": -0.01819787, "MEAN_MOTION_DDOT": 0.00089851859}, "tle": {"line1": "1 67028U 25293AB  25355.58335648 -.01819787  89852-3 -60214-2 0  9999", "line2": "2 67028  69.9924 298.0419 0004436 268.9199  76.7383 15.90276571  1657"}}, "geometry": {"type": "Point", "coordinates": [-5.424326692737616, 66.54574700577538]}}, {"type": "Feature", "properties": {"norad_id": 67029, "name": "STARLINK-36190", "group": "last-30-days", "lat": 64.90110581009564, "lon": -11.476219397743154, "alt_km": 299.29870547070186, "timestamp": "2025-12-21T18:54:57.226196+00:00", "meta": {"OBJECT_NAME": "STARLINK-36190", "OBJECT_ID": "2025-293AC", "EPOCH": "2025-12-21T14:00:01.999872", "MEAN_MOTION": 15.90283296, "ECCENTRICITY": 0.00044543, "INCLINATION": 69.9925, "RA_OF_ASC_NODE": 298.0458, "ARG_OF_PERICENTER": 267.6795, "MEAN_ANOMALY": 74.9905, "EPHEMERIS_TYPE": 0, "CLASSIFICATION_TYPE": "U", "NORAD_CAT_ID": 67029, "ELEMENT_SET_NO": 999, "REV_AT_EPOCH": 165, "BSTAR": -0.005901429, "MEAN_MOTION_DOT": -0.01784569, "MEAN_MOTION_DDOT": 0.00086650573}, "tle": {"line1": "1 67029U 25293AC  25355.58335648 -.01784569  86651-3 -59014-2 0  9999", "line2": "2 67029  69.9925 298.0458 0004454 267.6795  74.9905 15.90283296  1652"}}, "geometry": {"type": "Point", "coordinates": [-11.476219397743154, 64.90110581009564]}}]}